{"fetched_at":"2026-07-18T06:27:45.816Z","source":"https://celestrak.org/NORAD/elements/gp.php?GROUP=oneweb&FORMAT=JSON","constellation":"oneweb","records":[{"OBJECT_NAME":"ONEWEB-0588","OBJECT_ID":"2023-004P","EPOCH":"2026-07-17T21:56:17.393280","CLASSIFICATION_TYPE":"U","MEAN_MOTION":13.18686979,"ECCENTRICITY":0.00021155,"INCLINATION":87.9189,"RA_OF_ASC_NODE":329.3572,"ARG_OF_PERICENTER":85.1018,"MEAN_ANOMALY":275.0355,"EPHEMERIS_TYPE":0,"NORAD_CAT_ID":55153,"ELEMENT_SET_NO":999,"REV_AT_EPOCH":17374,"BSTAR":-0.00010194173,"MEAN_MOTION_DOT":-2.7e-7,"MEAN_MOTION_DDOT":0},{"OBJECT_NAME":"ONEWEB-0598","OBJECT_ID":"2023-004Q","EPOCH":"2026-07-17T21:47:18.624480","CLASSIFICATION_TYPE":"U","MEAN_MOTION":13.11417867,"ECCENTRICITY":0.00025279,"INCLINATION":87.8887,"RA_OF_ASC_NODE":14.9506,"ARG_OF_PERICENTER":97.4332,"MEAN_ANOMALY":262.7083,"EPHEMERIS_TYPE":0,"NORAD_CAT_ID":55154,"ELEMENT_SET_NO":999,"REV_AT_EPOCH":16992,"BSTAR":-0.0013533373,"MEAN_MOTION_DOT":-0.00000467,"MEAN_MOTION_DDOT":0},{"OBJECT_NAME":"ONEWEB-0599","OBJECT_ID":"2023-004R","EPOCH":"2026-07-17T22:20:31.252992","CLASSIFICATION_TYPE":"U","MEAN_MOTION":13.17650314,"ECCENTRICITY":0.0001937,"INCLINATION":87.915,"RA_OF_ASC_NODE":359.7479,"ARG_OF_PERICENTER":100.2754,"MEAN_ANOMALY":259.8596,"EPHEMERIS_TYPE":0,"NORAD_CAT_ID":55155,"ELEMENT_SET_NO":999,"REV_AT_EPOCH":17153,"BSTAR":-0.00018955929,"MEAN_MOTION_DOT":-6.1e-7,"MEAN_MOTION_DDOT":0},{"OBJECT_NAME":"ONEWEB-0614","OBJECT_ID":"2023-004S","EPOCH":"2026-07-17T21:39:58.930560","CLASSIFICATION_TYPE":"U","MEAN_MOTION":13.11416669,"ECCENTRICITY":0.00017301,"INCLINATION":87.8882,"RA_OF_ASC_NODE":14.9597,"ARG_OF_PERICENTER":84.0821,"MEAN_ANOMALY":276.0505,"EPHEMERIS_TYPE":0,"NORAD_CAT_ID":55156,"ELEMENT_SET_NO":999,"REV_AT_EPOCH":16986,"BSTAR":-0.0016054673,"MEAN_MOTION_DOT":-0.00000556,"MEAN_MOTION_DDOT":0},{"OBJECT_NAME":"ONEWEB-0616","OBJECT_ID":"2023-004T","EPOCH":"2026-07-17T21:31:55.157952","CLASSIFICATION_TYPE":"U","MEAN_MOTION":13.17650935,"ECCENTRICITY":0.00018955,"INCLINATION":87.9149,"RA_OF_ASC_NODE":359.7587,"ARG_OF_PERICENTER":122.6036,"MEAN_ANOMALY":237.5279,"EPHEMERIS_TYPE":0,"NORAD_CAT_ID":55157,"ELEMENT_SET_NO":999,"REV_AT_EPOCH":17174,"BSTAR":0.000052415286,"MEAN_MOTION_DOT":3.3e-7,"MEAN_MOTION_DDOT":0},{"OBJECT_NAME":"ONEWEB-0617","OBJECT_ID":"2023-004U","EPOCH":"2026-07-17T21:22:52.975488","CLASSIFICATION_TYPE":"U","MEAN_MOTION":13.1141639,"ECCENTRICITY":0.00018519,"INCLINATION":87.8889,"RA_OF_ASC_NODE":14.9551,"ARG_OF_PERICENTER":77.9508,"MEAN_ANOMALY":282.1828,"EPHEMERIS_TYPE":0,"NORAD_CAT_ID":55158,"ELEMENT_SET_NO":999,"REV_AT_EPOCH":16988,"BSTAR":-0.00094928835,"MEAN_MOTION_DOT":-0.00000324,"MEAN_MOTION_DDOT":0},{"OBJECT_NAME":"ONEWEB-0618","OBJECT_ID":"2023-004V","EPOCH":"2026-07-17T22:33:44.221824","CLASSIFICATION_TYPE":"U","MEAN_MOTION":15.13415519,"ECCENTRICITY":0.00125988,"INCLINATION":86.9113,"RA_OF_ASC_NODE":165.1483,"ARG_OF_PERICENTER":164.8882,"MEAN_ANOMALY":195.2737,"EPHEMERIS_TYPE":0,"NORAD_CAT_ID":55159,"ELEMENT_SET_NO":999,"REV_AT_EPOCH":18691,"BSTAR":0.00040273397,"MEAN_MOTION_DOT":0.00007235,"MEAN_MOTION_DDOT":0},{"OBJECT_NAME":"ONEWEB-0619","OBJECT_ID":"2023-004W","EPOCH":"2026-07-17T22:18:05.324256","CLASSIFICATION_TYPE":"U","MEAN_MOTION":13.17651219,"ECCENTRICITY":0.00014147,"INCLINATION":87.9159,"RA_OF_ASC_NODE":359.7354,"ARG_OF_PERICENTER":92.2662,"MEAN_ANOMALY":267.8631,"EPHEMERIS_TYPE":0,"NORAD_CAT_ID":55160,"ELEMENT_SET_NO":999,"REV_AT_EPOCH":17164,"BSTAR":0.00014530263,"MEAN_MOTION_DOT":6.9e-7,"MEAN_MOTION_DDOT":0},{"OBJECT_NAME":"ONEWEB-0620","OBJECT_ID":"2023-004X","EPOCH":"2026-07-17T21:15:34.226784","CLASSIFICATION_TYPE":"U","MEAN_MOTION":13.11415136,"ECCENTRICITY":0.00021136,"INCLINATION":87.8882,"RA_OF_ASC_NODE":14.9626,"ARG_OF_PERICENTER":90.2669,"MEAN_ANOMALY":269.8701,"EPHEMERIS_TYPE":0,"NORAD_CAT_ID":55161,"ELEMENT_SET_NO":999,"REV_AT_EPOCH":16985,"BSTAR":-0.00034228665,"MEAN_MOTION_DOT":-0.00000109,"MEAN_MOTION_DDOT":0},{"OBJECT_NAME":"ONEWEB-0621","OBJECT_ID":"2023-004Y","EPOCH":"2026-07-17T21:54:38.405664","CLASSIFICATION_TYPE":"U","MEAN_MOTION":13.11417878,"ECCENTRICITY":0.00017094,"INCLINATION":87.8892,"RA_OF_ASC_NODE":14.9493,"ARG_OF_PERICENTER":84.6198,"MEAN_ANOMALY":275.5125,"EPHEMERIS_TYPE":0,"NORAD_CAT_ID":55162,"ELEMENT_SET_NO":999,"REV_AT_EPOCH":16983,"BSTAR":-0.0010544009,"MEAN_MOTION_DOT":-0.00000361,"MEAN_MOTION_DDOT":0},{"OBJECT_NAME":"ONEWEB-0622","OBJECT_ID":"2023-004Z","EPOCH":"2026-07-17T22:01:58.147968","CLASSIFICATION_TYPE":"U","MEAN_MOTION":13.1141832,"ECCENTRICITY":0.00021137,"INCLINATION":87.8895,"RA_OF_ASC_NODE":14.9514,"ARG_OF_PERICENTER":71.2707,"MEAN_ANOMALY":288.865,"EPHEMERIS_TYPE":0,"NORAD_CAT_ID":55163,"ELEMENT_SET_NO":999,"REV_AT_EPOCH":16982,"BSTAR":-0.00054000302,"MEAN_MOTION_DOT":-0.00000179,"MEAN_MOTION_DDOT":0},{"OBJECT_NAME":"ONEWEB-0623","OBJECT_ID":"2023-004AA","EPOCH":"2026-07-17T22:10:48.800352","CLASSIFICATION_TYPE":"U","MEAN_MOTION":13.17649229,"ECCENTRICITY":0.00015693,"INCLINATION":87.9148,"RA_OF_ASC_NODE":359.7631,"ARG_OF_PERICENTER":69.0482,"MEAN_ANOMALY":291.0817,"EPHEMERIS_TYPE":0,"NORAD_CAT_ID":55164,"ELEMENT_SET_NO":999,"REV_AT_EPOCH":17163,"BSTAR":0.000086733318,"MEAN_MOTION_DOT":4.7e-7,"MEAN_MOTION_DDOT":0},{"OBJECT_NAME":"ONEWEB-0624","OBJECT_ID":"2023-004AB","EPOCH":"2026-07-17T21:46:14.183040","CLASSIFICATION_TYPE":"U","MEAN_MOTION":13.12929699,"ECCENTRICITY":0.00017647,"INCLINATION":87.8968,"RA_OF_ASC_NODE":344.4723,"ARG_OF_PERICENTER":92.156,"MEAN_ANOMALY":267.9771,"EPHEMERIS_TYPE":0,"NORAD_CAT_ID":55165,"ELEMENT_SET_NO":999,"REV_AT_EPOCH":17210,"BSTAR":-0.00039331828,"MEAN_MOTION_DOT":-0.0000013,"MEAN_MOTION_DDOT":0},{"OBJECT_NAME":"ONEWEB-0625","OBJECT_ID":"2023-004AC","EPOCH":"2026-07-17T21:56:13.537248","CLASSIFICATION_TYPE":"U","MEAN_MOTION":13.17648165,"ECCENTRICITY":0.00017839,"INCLINATION":87.9149,"RA_OF_ASC_NODE":359.7616,"ARG_OF_PERICENTER":98.0797,"MEAN_ANOMALY":262.0537,"EPHEMERIS_TYPE":0,"NORAD_CAT_ID":55166,"ELEMENT_SET_NO":999,"REV_AT_EPOCH":17162,"BSTAR":-0.000036232726,"MEAN_MOTION_DOT":-1e-8,"MEAN_MOTION_DDOT":0},{"OBJECT_NAME":"ONEWEB-0626","OBJECT_ID":"2023-004AD","EPOCH":"2026-07-17T21:41:39.845760","CLASSIFICATION_TYPE":"U","MEAN_MOTION":13.17651228,"ECCENTRICITY":0.00022215,"INCLINATION":87.9149,"RA_OF_ASC_NODE":359.7626,"ARG_OF_PERICENTER":98.7888,"MEAN_ANOMALY":261.3495,"EPHEMERIS_TYPE":0,"NORAD_CAT_ID":55167,"ELEMENT_SET_NO":999,"REV_AT_EPOCH":17162,"BSTAR":0.000093877405,"MEAN_MOTION_DOT":4.9e-7,"MEAN_MOTION_DDOT":0},{"OBJECT_NAME":"ONEWEB-0627","OBJECT_ID":"2023-004AE","EPOCH":"2026-07-17T21:24:39.088512","CLASSIFICATION_TYPE":"U","MEAN_MOTION":13.17648647,"ECCENTRICITY":0.00016304,"INCLINATION":87.9149,"RA_OF_ASC_NODE":359.7658,"ARG_OF_PERICENTER":80.1275,"MEAN_ANOMALY":280.0041,"EPHEMERIS_TYPE":0,"NORAD_CAT_ID":55168,"ELEMENT_SET_NO":999,"REV_AT_EPOCH":17162,"BSTAR":0.00010152923,"MEAN_MOTION_DOT":5.2e-7,"MEAN_MOTION_DDOT":0}]}
