ONEWEB-0588             
1 55153U 23004P   26198.91409020 -.00000027  00000+0 -10194-3 0  9997
2 55153  87.9189 329.3572 0002115  85.1018 275.0355 13.18686979173743
ONEWEB-0598             
1 55154U 23004Q   26198.90785445 -.00000467  00000+0 -13533-2 0  9992
2 55154  87.8887  14.9506 0002527  97.4332 262.7083 13.11417867169921
ONEWEB-0599             
1 55155U 23004R   26198.93091728 -.00000061  00000+0 -18956-3 0  9995
2 55155  87.9150 359.7479 0001937 100.2754 259.8596 13.17650314171538
ONEWEB-0614             
1 55156U 23004S   26198.90276540 -.00000556  00000+0 -16055-2 0  9996
2 55156  87.8882  14.9597 0001730  84.0821 276.0505 13.11416669169867
ONEWEB-0616             
1 55157U 23004T   26198.89716618  .00000033  00000+0  52415-4 0  9990
2 55157  87.9149 359.7587 0001895 122.6036 237.5279 13.17650935171745
ONEWEB-0617             
1 55158U 23004U   26198.89089092 -.00000324  00000+0 -94929-3 0  9990
2 55158  87.8889  14.9551 0001851  77.9508 282.1828 13.11416390169882
ONEWEB-0618             
1 55159U 23004V   26198.94009516  .00007235  00000+0  40273-3 0  9999
2 55159  86.9113 165.1483 0012598 164.8882 195.2737 15.13415519186919
ONEWEB-0619             
1 55160U 23004W   26198.92922829  .00000069  00000+0  14530-3 0  9995
2 55160  87.9159 359.7354 0001414  92.2662 267.8631 13.17651219171649
ONEWEB-0620             
1 55161U 23004X   26198.88581281 -.00000109  00000+0 -34229-3 0  9998
2 55161  87.8882  14.9626 0002113  90.2669 269.8701 13.11415136169856
ONEWEB-0621             
1 55162U 23004Y   26198.91294451 -.00000361  00000+0 -10544-2 0  9996
2 55162  87.8892  14.9493 0001709  84.6198 275.5125 13.11417878169831
ONEWEB-0622             
1 55163U 23004Z   26198.91803412 -.00000179  00000+0 -54000-3 0  9993
2 55163  87.8895  14.9514 0002113  71.2707 288.8650 13.11418320169829
ONEWEB-0623             
1 55164U 23004AA  26198.92417593  .00000047  00000+0  86733-4 0  9997
2 55164  87.9148 359.7631 0001569  69.0482 291.0817 13.17649229171634
ONEWEB-0624             
1 55165U 23004AB  26198.90710860 -.00000130  00000+0 -39332-3 0  9996
2 55165  87.8968 344.4723 0001764  92.1560 267.9771 13.12929699172109
ONEWEB-0625             
1 55166U 23004AC  26198.91404557 -.00000001  00000+0 -36233-4 0  9996
2 55166  87.9149 359.7616 0001783  98.0797 262.0537 13.17648165171623
ONEWEB-0626             
1 55167U 23004AD  26198.90393340  .00000049  00000+0  93877-4 0  9990
2 55167  87.9149 359.7626 0002221  98.7888 261.3495 13.17651228171620
ONEWEB-0627             
1 55168U 23004AE  26198.89211908  .00000052  00000+0  10153-3 0  9997
2 55168  87.9149 359.7658 0001630  80.1275 280.0041 13.17648647171620
